[{"OBJECT_NAME":"ONEWEB-0264","OBJECT_ID":"2021-060R","EPOCH":"2026-02-09T03:06:22.315680","MEAN_MOTION":13.16594439,"ECCENTRICITY":0.00013071,"INCLINATION":87.9005,"RA_OF_ASC_NODE":254.2746,"ARG_OF_PERICENTER":85.8985,"MEAN_ANOMALY":274.2296,"EPHEMERIS_TYPE":0,"CLASSIFICATION_TYPE":"U","NORAD_CAT_ID":48982,"ELEMENT_SET_NO":999,"REV_AT_EPOCH":22274,"BSTAR":6.792091e-5,"MEAN_MOTION_DOT":3.9e-7,"MEAN_MOTION_DDOT":0},{"OBJECT_NAME":"ONEWEB-0266","OBJECT_ID":"2021-060T","EPOCH":"2026-02-09T01:47:42.927360","MEAN_MOTION":13.16594641,"ECCENTRICITY":0.0001664,"INCLINATION":87.9004,"RA_OF_ASC_NODE":254.2744,"ARG_OF_PERICENTER":89.7325,"MEAN_ANOMALY":270.3997,"EPHEMERIS_TYPE":0,"CLASSIFICATION_TYPE":"U","NORAD_CAT_ID":48984,"ELEMENT_SET_NO":999,"REV_AT_EPOCH":22272,"BSTAR":-0.00014263577,"MEAN_MOTION_DOT":-4.2e-7,"MEAN_MOTION_DDOT":0},{"OBJECT_NAME":"ONEWEB-0267","OBJECT_ID":"2021-060U","EPOCH":"2026-02-09T02:03:39.765888","MEAN_MOTION":13.16594601,"ECCENTRICITY":0.00013183,"INCLINATION":87.9003,"RA_OF_ASC_NODE":254.269,"ARG_OF_PERICENTER":91.6743,"MEAN_ANOMALY":268.4539,"EPHEMERIS_TYPE":0,"CLASSIFICATION_TYPE":"U","NORAD_CAT_ID":48985,"ELEMENT_SET_NO":999,"REV_AT_EPOCH":22273,"BSTAR":-1.6250683e-5,"MEAN_MOTION_DOT":7.0e-8,"MEAN_MOTION_DDOT":0},{"OBJECT_NAME":"ONEWEB-0268","OBJECT_ID":"2021-060V","EPOCH":"2026-02-09T03:07:30.530208","MEAN_MOTION":13.16594723,"ECCENTRICITY":0.00014761,"INCLINATION":87.9003,"RA_OF_ASC_NODE":254.2697,"ARG_OF_PERICENTER":85.0973,"MEAN_ANOMALY":275.0327,"EPHEMERIS_TYPE":0,"CLASSIFICATION_TYPE":"U","NORAD_CAT_ID":48986,"ELEMENT_SET_NO":999,"REV_AT_EPOCH":22300,"BSTAR":-0.00011564863,"MEAN_MOTION_DOT":-3.1e-7,"MEAN_MOTION_DDOT":0},{"OBJECT_NAME":"ONEWEB-0269","OBJECT_ID":"2021-060W","EPOCH":"2026-02-09T02:40:08.474880","MEAN_MOTION":13.16593985,"ECCENTRICITY":0.00016183,"INCLINATION":87.8991,"RA_OF_ASC_NODE":254.2905,"ARG_OF_PERICENTER":82.9642,"MEAN_ANOMALY":277.1673,"EPHEMERIS_TYPE":0,"CLASSIFICATION_TYPE":"U","NORAD_CAT_ID":48987,"ELEMENT_SET_NO":999,"REV_AT_EPOCH":22277,"BSTAR":0.00012032589,"MEAN_MOTION_DOT":5.9e-7,"MEAN_MOTION_DDOT":0},{"OBJECT_NAME":"ONEWEB-0270","OBJECT_ID":"2021-060X","EPOCH":"2026-02-09T03:05:14.073504","MEAN_MOTION":13.16594571,"ECCENTRICITY":0.00013709,"INCLINATION":87.9003,"RA_OF_ASC_NODE":254.2722,"ARG_OF_PERICENTER":105.1535,"MEAN_ANOMALY":254.9748,"EPHEMERIS_TYPE":0,"CLASSIFICATION_TYPE":"U","NORAD_CAT_ID":48988,"ELEMENT_SET_NO":999,"REV_AT_EPOCH":22281,"BSTAR":0.00011816256,"MEAN_MOTION_DOT":5.8e-7,"MEAN_MOTION_DDOT":0},{"OBJECT_NAME":"ONEWEB-0271","OBJECT_ID":"2021-060Y","EPOCH":"2026-02-09T02:46:59.926368","MEAN_MOTION":13.16592054,"ECCENTRICITY":0.00012984,"INCLINATION":87.9004,"RA_OF_ASC_NODE":254.265,"ARG_OF_PERICENTER":95.6333,"MEAN_ANOMALY":264.4946,"EPHEMERIS_TYPE":0,"CLASSIFICATION_TYPE":"U","NORAD_CAT_ID":48989,"ELEMENT_SET_NO":999,"REV_AT_EPOCH":22281,"BSTAR":-8.3401185e-5,"MEAN_MOTION_DOT":-1.9e-7,"MEAN_MOTION_DDOT":0},{"OBJECT_NAME":"ONEWEB-0272","OBJECT_ID":"2021-060Z","EPOCH":"2026-02-09T03:18:54.708480","MEAN_MOTION":13.16594521,"ECCENTRICITY":0.00013123,"INCLINATION":87.9003,"RA_OF_ASC_NODE":254.2725,"ARG_OF_PERICENTER":81.8404,"MEAN_ANOMALY":278.2875,"EPHEMERIS_TYPE":0,"CLASSIFICATION_TYPE":"U","NORAD_CAT_ID":48990,"ELEMENT_SET_NO":999,"REV_AT_EPOCH":22276,"BSTAR":-9.5176865e-5,"MEAN_MOTION_DOT":-2.4e-7,"MEAN_MOTION_DDOT":0},{"OBJECT_NAME":"ONEWEB-0273","OBJECT_ID":"2021-060AA","EPOCH":"2026-02-09T02:01:23.628864","MEAN_MOTION":13.16594531,"ECCENTRICITY":0.00014405,"INCLINATION":87.9003,"RA_OF_ASC_NODE":254.2812,"ARG_OF_PERICENTER":94.2225,"MEAN_ANOMALY":265.907,"EPHEMERIS_TYPE":0,"CLASSIFICATION_TYPE":"U","NORAD_CAT_ID":48991,"ELEMENT_SET_NO":999,"REV_AT_EPOCH":22273,"BSTAR":1.8462665e-5,"MEAN_MOTION_DOT":2.0e-7,"MEAN_MOTION_DDOT":0},{"OBJECT_NAME":"ONEWEB-0274","OBJECT_ID":"2021-060AB","EPOCH":"2026-02-09T02:37:52.288608","MEAN_MOTION":13.16594124,"ECCENTRICITY":0.00013532,"INCLINATION":87.8989,"RA_OF_ASC_NODE":254.2931,"ARG_OF_PERICENTER":76.4158,"MEAN_ANOMALY":283.7124,"EPHEMERIS_TYPE":0,"CLASSIFICATION_TYPE":"U","NORAD_CAT_ID":48992,"ELEMENT_SET_NO":999,"REV_AT_EPOCH":22277,"BSTAR":0.00023479433,"MEAN_MOTION_DOT":1.03e-6,"MEAN_MOTION_DDOT":0},{"OBJECT_NAME":"ONEWEB-0275","OBJECT_ID":"2021-060AC","EPOCH":"2026-02-09T02:21:54.451296","MEAN_MOTION":13.1659435,"ECCENTRICITY":0.00014256,"INCLINATION":87.9,"RA_OF_ASC_NODE":254.2711,"ARG_OF_PERICENTER":88.4256,"MEAN_ANOMALY":271.7038,"EPHEMERIS_TYPE":0,"CLASSIFICATION_TYPE":"U","NORAD_CAT_ID":48993,"ELEMENT_SET_NO":999,"REV_AT_EPOCH":22270,"BSTAR":0.00010043059,"MEAN_MOTION_DOT":5.1e-7,"MEAN_MOTION_DDOT":0},{"OBJECT_NAME":"ONEWEB-0276","OBJECT_ID":"2021-060AD","EPOCH":"2026-02-09T01:20:21.623712","MEAN_MOTION":13.1659489,"ECCENTRICITY":0.00015455,"INCLINATION":87.9004,"RA_OF_ASC_NODE":254.2788,"ARG_OF_PERICENTER":94.8145,"MEAN_ANOMALY":265.3163,"EPHEMERIS_TYPE":0,"CLASSIFICATION_TYPE":"U","NORAD_CAT_ID":48994,"ELEMENT_SET_NO":999,"REV_AT_EPOCH":22271,"BSTAR":0.00021163212,"MEAN_MOTION_DOT":9.4e-7,"MEAN_MOTION_DDOT":0},{"OBJECT_NAME":"ONEWEB-0277","OBJECT_ID":"2021-060AE","EPOCH":"2026-02-09T01:38:34.994976","MEAN_MOTION":13.16595924,"ECCENTRICITY":0.00014573,"INCLINATION":87.8992,"RA_OF_ASC_NODE":254.2952,"ARG_OF_PERICENTER":93.4997,"MEAN_ANOMALY":266.63,"EPHEMERIS_TYPE":0,"CLASSIFICATION_TYPE":"U","NORAD_CAT_ID":48995,"ELEMENT_SET_NO":999,"REV_AT_EPOCH":22270,"BSTAR":-7.1318669e-5,"MEAN_MOTION_DOT":-1.4e-7,"MEAN_MOTION_DDOT":0},{"OBJECT_NAME":"ONEWEB-0278","OBJECT_ID":"2021-060AF","EPOCH":"2026-02-09T03:14:20.933664","MEAN_MOTION":13.16595301,"ECCENTRICITY":0.00017245,"INCLINATION":87.9004,"RA_OF_ASC_NODE":254.2599,"ARG_OF_PERICENTER":88.8253,"MEAN_ANOMALY":271.3075,"EPHEMERIS_TYPE":0,"CLASSIFICATION_TYPE":"U","NORAD_CAT_ID":48996,"ELEMENT_SET_NO":999,"REV_AT_EPOCH":22284,"BSTAR":0.00028387689,"MEAN_MOTION_DOT":1.21e-6,"MEAN_MOTION_DDOT":0},{"OBJECT_NAME":"ONEWEB-0279","OBJECT_ID":"2021-060AG","EPOCH":"2026-02-09T03:25:44.394816","MEAN_MOTION":13.16595262,"ECCENTRICITY":0.00012144,"INCLINATION":87.9005,"RA_OF_ASC_NODE":254.257,"ARG_OF_PERICENTER":87.0703,"MEAN_ANOMALY":273.0567,"EPHEMERIS_TYPE":0,"CLASSIFICATION_TYPE":"U","NORAD_CAT_ID":48997,"ELEMENT_SET_NO":999,"REV_AT_EPOCH":22277,"BSTAR":8.8663798e-5,"MEAN_MOTION_DOT":4.7e-7,"MEAN_MOTION_DDOT":0},{"OBJECT_NAME":"ONEWEB-0280","OBJECT_ID":"2021-060AH","EPOCH":"2026-02-09T00:08:31.312608","MEAN_MOTION":13.16593642,"ECCENTRICITY":0.00016375,"INCLINATION":87.9002,"RA_OF_ASC_NODE":254.2901,"ARG_OF_PERICENTER":101.1651,"MEAN_ANOMALY":258.9664,"EPHEMERIS_TYPE":0,"CLASSIFICATION_TYPE":"U","NORAD_CAT_ID":48998,"ELEMENT_SET_NO":999,"REV_AT_EPOCH":22269,"BSTAR":-0.00067144598,"MEAN_MOTION_DOT":-2.44e-6,"MEAN_MOTION_DDOT":0}]
