ONEWEB-0264             
1 48982U 21060R   26040.12942495  .00000039  00000+0  67921-4 0  9998
2 48982  87.9005 254.2746 0001307  85.8985 274.2296 13.16594439222740
ONEWEB-0266             
1 48984U 21060T   26040.07480240 -.00000042  00000+0 -14264-3 0  9996
2 48984  87.9004 254.2744 0001664  89.7325 270.3997 13.16594641222724
ONEWEB-0267             
1 48985U 21060U   26040.08587692  .00000007  00000+0 -16251-4 0  9996
2 48985  87.9003 254.2690 0001318  91.6743 268.4539 13.16594601222733
ONEWEB-0268             
1 48986U 21060V   26040.13021447 -.00000031  00000+0 -11565-3 0  9994
2 48986  87.9003 254.2697 0001476  85.0973 275.0327 13.16594723223003
ONEWEB-0269             
1 48987U 21060W   26040.11120920  .00000059  00000+0  12033-3 0  9998
2 48987  87.8991 254.2905 0001618  82.9642 277.1673 13.16593985222777
ONEWEB-0270             
1 48988U 21060X   26040.12863511  .00000058  00000+0  11816-3 0  9997
2 48988  87.9003 254.2722 0001370 105.1535 254.9748 13.16594571222817
ONEWEB-0271             
1 48989U 21060Y   26040.11597137 -.00000019  00000+0 -83401-4 0  9994
2 48989  87.9004 254.2650 0001298  95.6333 264.4946 13.16592054222817
ONEWEB-0272             
1 48990U 21060Z   26040.13813320 -.00000024  00000+0 -95177-4 0  9992
2 48990  87.9003 254.2725 0001312  81.8404 278.2875 13.16594521222763
ONEWEB-0273             
1 48991U 21060AA  26040.08430126  .00000020  00000+0  18463-4 0  9993
2 48991  87.9003 254.2812 0001440  94.2225 265.9070 13.16594531222730
ONEWEB-0274             
1 48992U 21060AB  26040.10963297  .00000103  00000+0  23479-3 0  9991
2 48992  87.8989 254.2931 0001353  76.4158 283.7124 13.16594124222775
ONEWEB-0275             
1 48993U 21060AC  26040.09854689  .00000051  00000+0  10043-3 0  9999
2 48993  87.9000 254.2711 0001425  88.4256 271.7038 13.16594350222704
ONEWEB-0276             
1 48994U 21060AD  26040.05580583  .00000094  00000+0  21163-3 0  9997
2 48994  87.9004 254.2788 0001545  94.8145 265.3163 13.16594890222712
ONEWEB-0277             
1 48995U 21060AE  26040.06846059 -.00000014  00000+0 -71319-4 0  9995
2 48995  87.8992 254.2952 0001457  93.4997 266.6300 13.16595924222708
ONEWEB-0278             
1 48996U 21060AF  26040.13496451  .00000121  00000+0  28388-3 0  9995
2 48996  87.9004 254.2599 0001724  88.8253 271.3075 13.16595301222847
ONEWEB-0279             
1 48997U 21060AG  26040.14287494  .00000047  00000+0  88664-4 0  9993
2 48997  87.9005 254.2570 0001214  87.0703 273.0567 13.16595262222776
ONEWEB-0280             
1 48998U 21060AH  26040.00591797 -.00000244  00000+0 -67145-3 0  9994
2 48998  87.9002 254.2901 0001637 101.1651 258.9664 13.16593642222692
